ONEWEB-0456             
1 51646U 22012AA  24165.54776217 -.00000384  00000+0 -11367-2 0  9992
2 51646  87.8933 182.1099 0002231  83.3606 276.7776 13.10375964113260
ONEWEB-0457             
1 51647U 22012AB  24165.60088632 -.00000344  00000+0 -10204-2 0  9992
2 51647  87.8936 182.1213 0001673  92.5595 267.5724 13.10377046113275
ONEWEB-0458             
1 51648U 22012AC  24165.54610110 -.00000456  00000+0 -13421-2 0  9996
2 51648  87.8944 182.1477 0002127  95.4628 264.6742 13.10375592113228
ONEWEB-0461             
1 51649U 22012AD  24165.53362588 -.00000003  00000+0 -41307-4 0  9993
2 51649  87.9163 151.9054 0001929  87.7558 272.3794 13.17647531117277
ONEWEB-0463             
1 51650U 22012AE  24165.44026414  .00000053  00000+0  10415-3 0  9998
2 51650  87.9165 151.9708 0001993  89.5415 270.5945 13.17647265117047
ONEWEB-0464             
1 51651U 22012AF  24165.54277982 -.00000580  00000+0 -16971-2 0  9997
2 51651  87.8945 182.1371 0002420  87.5122 272.6282 13.10374934113242
ONEWEB-0468             
1 51652U 22012AG  24165.54943282 -.00000316  00000+0 -94140-3 0  9993
2 51652  87.8946 182.1284 0002141  90.4778 269.6595 13.10377153113224
ONEWEB-0473             
1 51653U 22012AH  24165.61083267 -.00000689  00000+0 -20109-2 0  9996
2 51653  87.8939 182.1201 0002128  93.2403 266.8968 13.10372724113230
ONEWEB-0474             
1 51654U 22012AJ  24165.60253765 -.00000370  00000+0 -10976-2 0  9996
2 51654  87.8927 182.1188 0002288  93.3949 266.7440 13.10369925113227
ONEWEB-0475             
1 51655U 22012AK  24165.45136440  .00000022  00000+0  23004-4 0  9990
2 51655  87.9167 151.9477 0002456  93.4910 266.6502 13.17648201117064
ONEWEB-0490             
1 54113U 22138A   24165.53129708  .00000062  00000+0  12190-3 0  9996
2 54113  87.9150  90.9650 0002195  79.0491 281.0889 13.19724215 80067
ONEWEB-0492             
1 54114U 22138B   24165.55656771  .00000009  00000+0 -98295-5 0  9998
2 54114  87.9155  90.9630 0002374  77.3957 282.7441 13.19724765 80071
ONEWEB-0495             
1 54115U 22138C   24165.53446410  .00000068  00000+0  13649-3 0  9996
2 54115  87.9155  90.9788 0002880  86.2116 273.9346 13.19725687 80052
ONEWEB-0497             
1 54116U 22138D   24165.54709646  .00000017  00000+0  10818-4 0  9991
2 54116  87.9151  90.9646 0002196  79.1726 280.9654 13.19725472 80917
ONEWEB-0499             
1 54117U 22138E   24165.30227178  .00000149  00000+0  33900-3 0  9993
2 54117  87.9154  91.0143 0002130  93.9915 266.1461 13.19724084 80029
ONEWEB-0500             
1 54118U 22138F   24165.53288308  .00000048  00000+0  87943-4 0  9996
2 54118  87.9152  90.9645 0002139  78.1134 282.0239 13.19725038 80064
ONEWEB-0501             
1 54119U 22138G   24165.48707221 -.00000009  00000+0 -53990-4 0  9995
2 54119  87.9151  90.9723 0002581  85.4100 274.7327 13.19723750 80038
ONEWEB-0502             
1 54120U 22138H   24165.54867421  .00000005  00000+0 -20606-4 0  9996
2 54120  87.9150  90.9492 0002338  86.5158 273.6242 13.19725903 80066
ONEWEB-0503             
1 54121U 22138J   24165.53762516 -.00000020  00000+0 -83544-4 0  9993
2 54121  87.9148  90.9581 0001828  92.0630 268.0712 13.19726238 80054
ONEWEB-0504             
1 54122U 22138K   24165.52498790  .00000072  00000+0  14691-3 0  9994
2 54122  87.9152  90.9664 0002261  89.4141 270.7251 13.19725659 80932
ONEWEB-0505             
1 54123U 22138L   24165.52182887  .00000054  00000+0  10152-3 0  9990
2 54123  87.9149  90.9620 0002728  89.6839 270.4606 13.19725117 80047
ONEWEB-0506             
1 54124U 22138M   24165.49655575  .00000109  00000+0  24073-3 0  9994
2 54124  87.9150  90.9639 0002284  83.4155 276.7237 13.19725465 80034
ONEWEB-0507             
1 54125U 22138N   24165.51708868  .00000092  00000+0  19712-3 0  9997
2 54125  87.9158  90.9808 0002405  80.4920 279.6485 13.19725346 80083
ONEWEB-0508             
1 54126U 22138P   24165.51391667  .00000093  00000+0  20018-3 0  9995
2 54126  87.9154  90.9749 0002513  81.3743 278.7674 13.19724220 80065
ONEWEB-0509             
1 54127U 22138Q   24165.48865356 -.00000001  00000+0 -34366-4 0  9996
2 54127  87.9148  90.9674 0002224  82.5813 277.5573 13.19725320 80030
ONEWEB-0510             
1 54128U 22138R   24165.42697368  .00000067  00000+0  13333-3 0  9997
2 54128  87.9218  60.4226 0001815  64.9931 295.1391 13.20771846 82429
ONEWEB-0511             
1 54129U 22138S   24165.48549265  .00000026  00000+0  33816-4 0  9990
2 54129  87.9149  90.9708 0002005  91.5524 268.5838 13.19725811 80069
ONEWEB-0512             
1 54130U 22138T   24165.55341706  .00000045  00000+0  79976-4 0  9998
2 54130  87.9157  90.9731 0002492  87.8437 272.2981 13.19725784 80045
ONEWEB-0513             
1 54131U 22138U   24165.52417687 -.00000004  00000+0 -43338-4 0  9998
2 54131  87.9155  90.9732 0002426  93.0554 267.0856 13.19722819 79925
ONEWEB-0514             
1 54132U 22138V   24165.49339180  .00000121  00000+0  27054-3 0  9990
2 54132  87.9150  90.9752 0001999  81.1176 279.0183 13.19725439 80058
ONEWEB-0515             
1 54133U 22138W   24165.41433749  .00002185  00000+0  53424-2 0  9990
2 54133  87.9216  60.4048 0002226  52.2679 307.8656 13.20760134 82446
ONEWEB-0516             
1 54134U 22138X   24165.54392013  .00000019  00000+0  14801-4 0  9995
2 54134  87.9158  90.9761 0002198  79.0746 281.0634 13.19730060 80936
ONEWEB-0517             
1 54135U 22138Y   24165.52339646  .00000096  00000+0  20724-3 0  9992
2 54135  87.9150  90.9653 0001844  92.4742 267.6602 13.19724711 80066
ONEWEB-0518             
1 54136U 22138Z   24165.54235040 -.00000020  00000+0 -81819-4 0  9990
2 54136  87.9156  90.9745 0002067  83.3990 276.7378 13.19724625 80938
ONEWEB-0519             
1 54137U 22138AA  24165.49180433  .00000035  00000+0  55283-4 0  9990
2 54137  87.9150  90.9675 0002262  90.4834 269.6558 13.19724288 80068
ONEWEB-0520             
1 54138U 22138AB  24165.29910825  .00000072  00000+0  14636-3 0  9992
2 54138  87.9149  91.0085 0002565  84.4705 275.6720 13.19724559 80025
ONEWEB-0521             
1 54139U 22138AC  24165.48391426  .00000022  00000+0  22980-4 0  9991
2 54139  87.9149  90.9648 0001850  84.1385 275.9958 13.19725172 79998
ONEWEB-0522             
1 54140U 22138AD  24165.53920046 -.00000011  00000+0 -59784-4 0  9997
2 54140  87.9148  90.9555 0002186  78.8059 281.3319 13.19725467 80044
ONEWEB-0523             
1 54141U 22138AE  24165.40171785  .00000017  00000+0  10198-4 0  9992
2 54141  87.9218  60.4356 0001224  55.9230 304.2019 13.20772851 82442
ONEWEB-0524             
1 54142U 22138AF  24165.61794951 -.00000002  00000+0 -36928-4 0  9997
2 54142  87.9218  60.3960 0002296  49.6900 310.4433 13.20772020 82477
ONEWEB-0525             
1 54143U 22138AG  24165.55815140  .00000033  00000+0  50460-4 0  9994
2 54143  87.9150  90.9606 0002367  83.9593 276.1810 13.19726151 80069
ONEWEB-0526             
1 54144U 22138AH  24165.51550740  .00000126  00000+0  28195-3 0  9995
2 54144  87.9150  90.9642 0002211  78.3835 281.7546 13.19725030 80035
ONEWEB-0529             
1 54145U 22138AJ  24165.51866641  .00000086  00000+0  18315-3 0  9994
2 54145  87.9157  90.9782 0002451  82.1584 277.9826 13.19724966 80055
ONEWEB-0531             
1 54146U 22138AK  24165.60373790  .00000049  00000+0  88056-4 0  9992
2 54146  87.9218  60.3895 0001573  43.0359 317.0897 13.20773099 82475
ONEWEB-0535             
1 54147U 22138AL  24165.55183465 -.00000025  00000+0 -94847-4 0  9996
2 54147  87.9148  90.9552 0001828  72.3154 287.8178 13.19727738 80075
ONEWEB-0536             
1 54148U 22138AM  24165.43961002  .00000041  00000+0  70159-4 0  9991
2 54148  87.9218  60.4713 0000975  56.4124 303.7102 13.20772206 82447
ONEWEB-0527             
1 54642U 22166A   24165.59748412  .00000017  00000+0  99262-5 0  9996
2 54642  87.9293  30.0278 0001857  79.4318 280.7025 13.21826444 74622
ONEWEB-0528             
1 54643U 22166B   24165.60377427  .00000584  00000+0  13834-2 0  9990
2 54643  87.9298  30.0133 0002064  82.1871 277.9497 13.21833963 74630
ONEWEB-0539             
1 54644U 22166C   24165.56435859  .00000080  00000+0  16242-3 0  9998
2 54644  87.9298  30.0232 0001806  90.0007 270.1334 13.21827345 74624
ONEWEB-0540             
1 54645U 22166D   24165.63454527  .00000114  00000+0  24431-3 0  9997
2 54645  87.9292  30.0278 0001916  92.3828 267.7526 13.21826780 74624
ONEWEB-0542             
1 54646U 22166E   24165.57382690  .00000095  00000+0  19901-3 0  9996
2 54646  87.9298  30.0209 0001576  97.3126 262.8187 13.21826843 74622
ONEWEB-0545             
1 54647U 22166F   24165.61640944 -.00000006  00000+0 -45756-4 0  9993
2 54647  87.9287  30.0339 0001941  99.4373 260.6981 13.21826391 74590
ONEWEB-0580             
1 54648U 22166G   24165.58959846  .00000033  00000+0  48889-4 0  9992
2 54648  87.9295  30.0076 0001521  99.1887 260.9419 13.21826641 74631
ONEWEB-0582             
1 54649U 22166H   24165.63216964  .00000069  00000+0  13528-3 0  9996
2 54649  87.9290  30.0366 0001410 104.2789 255.8502 13.21825473 74611
ONEWEB-0583             
1 54650U 22166J   24165.56750730  .00000050  00000+0  90757-4 0  9994
2 54650  87.9289  30.0498 0001881  86.5005 273.6344 13.21827003 74615
ONEWEB-0584             
1 54651U 22166K   24165.58800725  .00000032  00000+0  45116-4 0  9996
2 54651  87.9296  30.0112 0001658  92.9486 267.1838 13.21825667 74602
ONEWEB-0585             
1 54652U 22166L   24165.61324566  .00000014  00000+0  16798-5 0  9990
2 54652  87.9299  30.0148 0001895  80.4736 279.6611 13.21826716 74612
ONEWEB-0586             
1 54653U 22166M   24165.62586347  .00000082  00000+0  16687-3 0  9999
2 54653  87.9292  30.0275 0001798  90.9689 269.1651 13.21825107 74613
ONEWEB-0587             
1 54654U 22166N   24165.63531321  .00000088  00000+0  18228-3 0  9992
2 54654  87.9289  29.9807 0002035  76.6288 283.5073 13.21828463 74772
